[{"OBJECT_NAME":"TIANMU-1 20","OBJECT_ID":"2023-208B","EPOCH":"2026-03-09T21:50:45.859200","MEAN_MOTION":15.31029249,"ECCENTRICITY":0.00061925,"INCLINATION":97.4323,"RA_OF_ASC_NODE":185.4313,"ARG_OF_PERICENTER":324.1763,"MEAN_ANOMALY":35.9062,"EPHEMERIS_TYPE":0,"CLASSIFICATION_TYPE":"U","NORAD_CAT_ID":58661,"ELEMENT_SET_NO":999,"REV_AT_EPOCH":12222,"BSTAR":0.0003681641,"MEAN_MOTION_DOT":0.00010969,"MEAN_MOTION_DDOT":0},{"OBJECT_NAME":"STARLINK-36427","OBJECT_ID":"2026-002AE","EPOCH":"2026-03-08T17:52:19.944192","MEAN_MOTION":15.2758496,"ECCENTRICITY":4.265e-5,"INCLINATION":42.9939,"RA_OF_ASC_NODE":330.6507,"ARG_OF_PERICENTER":294.3069,"MEAN_ANOMALY":65.7738,"EPHEMERIS_TYPE":0,"CLASSIFICATION_TYPE":"U","NORAD_CAT_ID":67333,"ELEMENT_SET_NO":999,"REV_AT_EPOCH":1099,"BSTAR":0.0012747018,"MEAN_MOTION_DOT":0.00034987,"MEAN_MOTION_DDOT":0}]
